ISS OBJECT XX           
1 66911U 98067XX  26064.45331095  .00241775  00000+0  16815-2 0  9999
2 66911  51.6212  85.8394 0007023  57.6386 302.5291 15.73087577 14520
ISS OBJECT XY           
1 66912U 98067XY  26064.36235529  .00095193  00000+0  10308-2 0  9997
2 66912  51.6264  89.0101 0003010  64.7698 295.3608 15.62778625 14471
ISS OBJECT XZ           
1 67683U 98067XZ  26063.31738248  .00052289  00000+0  87421-3 0  9993
2 67683  51.6304  98.5346 0009491 167.7937 192.3284 15.51337660  3952
GXIBA-1                 
1 67684U 98067YA  26064.45583860  .00080338  00000+0  12309-2 0  9996
2 67684  51.6299  92.6362 0010970 161.6042 198.5347 15.53561731  4132
CORAL                   
1 67685U 98067YB  26064.34454096  .00046853  00000+0  77286-3 0  9993
2 67685  51.6309  93.3938 0011326 167.4976 192.6297 15.51741434  4113
ISS OBJECT YC           
1 67686U 98067YC  26064.08285944  .00055661  00000+0  90337-3 0  9998
2 67686  51.6311  94.6478 0007743 134.4449 225.7176 15.52157473  4071
LEOPARD                 
1 67687U 98067YD  26064.47497779  .00046527  00000+0  77252-3 0  9995
2 67687  51.6307  92.7649 0007783 140.1506 220.0056 15.51598294  4050
ISS OBJECT YE           
1 67688U 98067YE  26063.50513603  .00064836  00000+0  10599-2 0  9997
2 67688  51.6315  97.5383 0007786 134.7310 225.4314 15.51890022  3906
CREW DRAGON 12          
1 67796U 26031A   26064.70570909  .00008837  00000+0  17141-3 0  9994
2 67796  51.6315  92.0530 0008143 160.3826 199.7477 15.48463204555870
